[{"OBJECT_NAME":"ONEWEB-0280","OBJECT_ID":"2021-060AH","EPOCH":"2025-09-04T03:50:44.810304","MEAN_MOTION":13.1659277,"ECCENTRICITY":0.00015883,"INCLINATION":87.8997,"RA_OF_ASC_NODE":285.7858,"ARG_OF_PERICENTER":98.2941,"MEAN_ANOMALY":261.837,"EPHEMERIS_TYPE":0,"CLASSIFICATION_TYPE":"U","NORAD_CAT_ID":48998,"ELEMENT_SET_NO":999,"REV_AT_EPOCH":20192,"BSTAR":0.00023431438,"MEAN_MOTION_DOT":1.02e-6,"MEAN_MOTION_DDOT":0},{"OBJECT_NAME":"ONEWEB-0281","OBJECT_ID":"2021-060AJ","EPOCH":"2025-09-04T03:58:44.588640","MEAN_MOTION":13.16591719,"ECCENTRICITY":0.00019973,"INCLINATION":87.9001,"RA_OF_ASC_NODE":285.7803,"ARG_OF_PERICENTER":96.9585,"MEAN_ANOMALY":263.1774,"EPHEMERIS_TYPE":0,"CLASSIFICATION_TYPE":"U","NORAD_CAT_ID":48999,"ELEMENT_SET_NO":999,"REV_AT_EPOCH":20199,"BSTAR":-0.00031316539,"MEAN_MOTION_DOT":-1.07e-6,"MEAN_MOTION_DDOT":0},{"OBJECT_NAME":"ONEWEB-0282","OBJECT_ID":"2021-060AK","EPOCH":"2025-09-04T02:52:37.324416","MEAN_MOTION":13.16594408,"ECCENTRICITY":0.00017266,"INCLINATION":87.8998,"RA_OF_ASC_NODE":285.8004,"ARG_OF_PERICENTER":92.3496,"MEAN_ANOMALY":267.7833,"EPHEMERIS_TYPE":0,"CLASSIFICATION_TYPE":"U","NORAD_CAT_ID":49000,"ELEMENT_SET_NO":999,"REV_AT_EPOCH":20196,"BSTAR":0.00011970703,"MEAN_MOTION_DOT":5.9e-7,"MEAN_MOTION_DDOT":0},{"OBJECT_NAME":"ONEWEB-0283","OBJECT_ID":"2021-060AL","EPOCH":"2025-09-04T04:26:05.953632","MEAN_MOTION":13.16594776,"ECCENTRICITY":0.00017674,"INCLINATION":87.899,"RA_OF_ASC_NODE":285.7904,"ARG_OF_PERICENTER":88.3819,"MEAN_ANOMALY":271.7514,"EPHEMERIS_TYPE":0,"CLASSIFICATION_TYPE":"U","NORAD_CAT_ID":49001,"ELEMENT_SET_NO":999,"REV_AT_EPOCH":20198,"BSTAR":0.00019435463,"MEAN_MOTION_DOT":8.7e-7,"MEAN_MOTION_DDOT":0},{"OBJECT_NAME":"ONEWEB-0284","OBJECT_ID":"2021-060AM","EPOCH":"2025-09-04T04:16:59.153952","MEAN_MOTION":13.16594688,"ECCENTRICITY":0.00018202,"INCLINATION":87.9008,"RA_OF_ASC_NODE":285.7714,"ARG_OF_PERICENTER":102.8534,"MEAN_ANOMALY":257.28,"EPHEMERIS_TYPE":0,"CLASSIFICATION_TYPE":"U","NORAD_CAT_ID":49002,"ELEMENT_SET_NO":999,"REV_AT_EPOCH":20196,"BSTAR":0.00021989386,"MEAN_MOTION_DOT":9.7e-7,"MEAN_MOTION_DDOT":0},{"OBJECT_NAME":"ONEWEB-0285","OBJECT_ID":"2021-075A","EPOCH":"2025-09-03T22:36:48.456000","MEAN_MOTION":13.1244326,"ECCENTRICITY":0.00016737,"INCLINATION":87.888,"RA_OF_ASC_NODE":47.536,"ARG_OF_PERICENTER":94.2518,"MEAN_ANOMALY":265.8802,"EPHEMERIS_TYPE":0,"CLASSIFICATION_TYPE":"U","NORAD_CAT_ID":49075,"ELEMENT_SET_NO":999,"REV_AT_EPOCH":19766,"BSTAR":-0.00078076588,"MEAN_MOTION_DOT":-2.68e-6,"MEAN_MOTION_DDOT":0},{"OBJECT_NAME":"ONEWEB-0286","OBJECT_ID":"2021-075B","EPOCH":"2025-09-04T03:40:01.916544","MEAN_MOTION":13.12440582,"ECCENTRICITY":0.00019117,"INCLINATION":87.8895,"RA_OF_ASC_NODE":47.5276,"ARG_OF_PERICENTER":94.6195,"MEAN_ANOMALY":265.5152,"EPHEMERIS_TYPE":0,"CLASSIFICATION_TYPE":"U","NORAD_CAT_ID":49076,"ELEMENT_SET_NO":999,"REV_AT_EPOCH":19704,"BSTAR":-0.00027060993,"MEAN_MOTION_DOT":-8.5e-7,"MEAN_MOTION_DDOT":0},{"OBJECT_NAME":"ONEWEB-0287","OBJECT_ID":"2021-075C","EPOCH":"2025-09-04T04:35:04.347456","MEAN_MOTION":13.17652838,"ECCENTRICITY":0.00020799,"INCLINATION":87.9037,"RA_OF_ASC_NODE":62.7581,"ARG_OF_PERICENTER":97.7488,"MEAN_ANOMALY":262.3879,"EPHEMERIS_TYPE":0,"CLASSIFICATION_TYPE":"U","NORAD_CAT_ID":49077,"ELEMENT_SET_NO":999,"REV_AT_EPOCH":19596,"BSTAR":-0.0017916341,"MEAN_MOTION_DOT":-6.83e-6,"MEAN_MOTION_DDOT":0},{"OBJECT_NAME":"ONEWEB-0288","OBJECT_ID":"2021-075D","EPOCH":"2025-09-04T04:55:00.730848","MEAN_MOTION":13.12442561,"ECCENTRICITY":0.00017119,"INCLINATION":87.8882,"RA_OF_ASC_NODE":47.4782,"ARG_OF_PERICENTER":98.3757,"MEAN_ANOMALY":261.7565,"EPHEMERIS_TYPE":0,"CLASSIFICATION_TYPE":"U","NORAD_CAT_ID":49078,"ELEMENT_SET_NO":999,"REV_AT_EPOCH":19767,"BSTAR":0.0013898702,"MEAN_MOTION_DOT":5.13e-6,"MEAN_MOTION_DDOT":0},{"OBJECT_NAME":"ONEWEB-0289","OBJECT_ID":"2021-075E","EPOCH":"2025-09-04T05:30:46.312416","MEAN_MOTION":13.17647366,"ECCENTRICITY":0.00014462,"INCLINATION":87.9023,"RA_OF_ASC_NODE":62.7772,"ARG_OF_PERICENTER":102.4207,"MEAN_ANOMALY":257.7086,"EPHEMERIS_TYPE":0,"CLASSIFICATION_TYPE":"U","NORAD_CAT_ID":49079,"ELEMENT_SET_NO":999,"REV_AT_EPOCH":19654,"BSTAR":0.00022779003,"MEAN_MOTION_DOT":1.01e-6,"MEAN_MOTION_DDOT":0},{"OBJECT_NAME":"ONEWEB-0290","OBJECT_ID":"2021-075F","EPOCH":"2025-09-04T04:52:05.631744","MEAN_MOTION":13.17648638,"ECCENTRICITY":0.00011488,"INCLINATION":87.903,"RA_OF_ASC_NODE":62.7361,"ARG_OF_PERICENTER":99.342,"MEAN_ANOMALY":260.7842,"EPHEMERIS_TYPE":0,"CLASSIFICATION_TYPE":"U","NORAD_CAT_ID":49080,"ELEMENT_SET_NO":999,"REV_AT_EPOCH":19595,"BSTAR":0.00012479721,"MEAN_MOTION_DOT":6.1e-7,"MEAN_MOTION_DDOT":0},{"OBJECT_NAME":"ONEWEB-0291","OBJECT_ID":"2021-075G","EPOCH":"2025-09-04T04:30:15.550272","MEAN_MOTION":13.17650981,"ECCENTRICITY":0.0001847,"INCLINATION":87.9038,"RA_OF_ASC_NODE":62.7433,"ARG_OF_PERICENTER":102.9996,"MEAN_ANOMALY":257.1342,"EPHEMERIS_TYPE":0,"CLASSIFICATION_TYPE":"U","NORAD_CAT_ID":49081,"ELEMENT_SET_NO":999,"REV_AT_EPOCH":19594,"BSTAR":0.00016403254,"MEAN_MOTION_DOT":7.7e-7,"MEAN_MOTION_DDOT":0},{"OBJECT_NAME":"ONEWEB-0293","OBJECT_ID":"2021-075H","EPOCH":"2025-09-04T05:06:41.544576","MEAN_MOTION":13.17650231,"ECCENTRICITY":0.00016152,"INCLINATION":87.9024,"RA_OF_ASC_NODE":62.7689,"ARG_OF_PERICENTER":95.1241,"MEAN_ANOMALY":265.0075,"EPHEMERIS_TYPE":0,"CLASSIFICATION_TYPE":"U","NORAD_CAT_ID":49082,"ELEMENT_SET_NO":999,"REV_AT_EPOCH":19597,"BSTAR":0.00018574583,"MEAN_MOTION_DOT":8.5e-7,"MEAN_MOTION_DDOT":0},{"OBJECT_NAME":"ONEWEB-0294","OBJECT_ID":"2021-075J","EPOCH":"2025-09-03T23:35:00.719808","MEAN_MOTION":13.12442415,"ECCENTRICITY":0.00014043,"INCLINATION":87.8882,"RA_OF_ASC_NODE":47.5226,"ARG_OF_PERICENTER":109.4466,"MEAN_ANOMALY":250.6815,"EPHEMERIS_TYPE":0,"CLASSIFICATION_TYPE":"U","NORAD_CAT_ID":49083,"ELEMENT_SET_NO":999,"REV_AT_EPOCH":19703,"BSTAR":0.0012081867,"MEAN_MOTION_DOT":4.47e-6,"MEAN_MOTION_DDOT":0},{"OBJECT_NAME":"ONEWEB-0295","OBJECT_ID":"2021-075K","EPOCH":"2025-09-04T05:05:27.244032","MEAN_MOTION":13.17647372,"ECCENTRICITY":0.00019613,"INCLINATION":87.9036,"RA_OF_ASC_NODE":62.7716,"ARG_OF_PERICENTER":100.9113,"MEAN_ANOMALY":259.2239,"EPHEMERIS_TYPE":0,"CLASSIFICATION_TYPE":"U","NORAD_CAT_ID":49084,"ELEMENT_SET_NO":999,"REV_AT_EPOCH":19593,"BSTAR":1.7215514e-5,"MEAN_MOTION_DOT":2.0e-7,"MEAN_MOTION_DDOT":0},{"OBJECT_NAME":"ONEWEB-0296","OBJECT_ID":"2021-075L","EPOCH":"2025-09-04T04:36:19.149984","MEAN_MOTION":13.12444422,"ECCENTRICITY":0.00018562,"INCLINATION":87.8883,"RA_OF_ASC_NODE":47.4869,"ARG_OF_PERICENTER":111.6514,"MEAN_ANOMALY":248.4812,"EPHEMERIS_TYPE":0,"CLASSIFICATION_TYPE":"U","NORAD_CAT_ID":49085,"ELEMENT_SET_NO":999,"REV_AT_EPOCH":19706,"BSTAR":0.00040209095,"MEAN_MOTION_DOT":1.57e-6,"MEAN_MOTION_DDOT":0},{"OBJECT_NAME":"ONEWEB-0297","OBJECT_ID":"2021-075M","EPOCH":"2025-09-04T03:30:54.944928","MEAN_MOTION":13.12442657,"ECCENTRICITY":0.00018064,"INCLINATION":87.8876,"RA_OF_ASC_NODE":47.534,"ARG_OF_PERICENTER":94.2154,"MEAN_ANOMALY":265.9181,"EPHEMERIS_TYPE":0,"CLASSIFICATION_TYPE":"U","NORAD_CAT_ID":49086,"ELEMENT_SET_NO":999,"REV_AT_EPOCH":19766,"BSTAR":0.00039987375,"MEAN_MOTION_DOT":1.57e-6,"MEAN_MOTION_DDOT":0}]
