ONEWEB-0280             
1 48998U 21060AH  25247.16024086  .00000102  00000+0  23431-3 0  9992
2 48998  87.8997 285.7858 0001588  98.2941 261.8370 13.16592770201928
ONEWEB-0281             
1 48999U 21060AJ  25247.16579385 -.00000107  00000+0 -31317-3 0  9999
2 48999  87.9001 285.7803 0001997  96.9585 263.1774 13.16591719201991
ONEWEB-0282             
1 49000U 21060AK  25247.11987644  .00000059  00000+0  11971-3 0  9997
2 49000  87.8998 285.8004 0001726  92.3496 267.7833 13.16594408201965
ONEWEB-0283             
1 49001U 21060AL  25247.18479113  .00000087  00000+0  19435-3 0  9996
2 49001  87.8990 285.7904 0001767  88.3819 271.7514 13.16594776201986
ONEWEB-0284             
1 49002U 21060AM  25247.17846243  .00000097  00000+0  21989-3 0  9996
2 49002  87.9008 285.7714 0001820 102.8534 257.2800 13.16594688201960
ONEWEB-0285             
1 49075U 21075A   25246.94222750 -.00000268  00000+0 -78077-3 0  9999
2 49075  87.8880  47.5360 0001673  94.2518 265.8802 13.12443260197663
ONEWEB-0286             
1 49076U 21075B   25247.15279996 -.00000085  00000+0 -27061-3 0  9992
2 49076  87.8895  47.5276 0001911  94.6195 265.5152 13.12440582197047
ONEWEB-0287             
1 49077U 21075C   25247.19102254 -.00000683  00000+0 -17916-2 0  9990
2 49077  87.9037  62.7581 0002079  97.7488 262.3879 13.17652838195964
ONEWEB-0288             
1 49078U 21075D   25247.20486957  .00000513  00000+0  13899-2 0  9994
2 49078  87.8882  47.4782 0001711  98.3757 261.7565 13.12442561197673
ONEWEB-0289             
1 49079U 21075E   25247.22970269  .00000101  00000+0  22779-3 0  9992
2 49079  87.9023  62.7772 0001446 102.4207 257.7086 13.17647366196546
ONEWEB-0290             
1 49080U 21075F   25247.20284296  .00000061  00000+0  12480-3 0  9993
2 49080  87.9030  62.7361 0001148  99.3420 260.7842 13.17648638195951
ONEWEB-0291             
1 49081U 21075G   25247.18767998  .00000077  00000+0  16403-3 0  9992
2 49081  87.9038  62.7433 0001847 102.9996 257.1342 13.17650981195943
ONEWEB-0293             
1 49082U 21075H   25247.21298084  .00000085  00000+0  18575-3 0  9993
2 49082  87.9024  62.7689 0001615  95.1241 265.0075 13.17650231195973
ONEWEB-0294             
1 49083U 21075J   25246.98264722  .00000447  00000+0  12082-2 0  9997
2 49083  87.8882  47.5226 0001404 109.4466 250.6815 13.12442415197036
ONEWEB-0295             
1 49084U 21075K   25247.21212088  .00000020  00000+0  17216-4 0  9996
2 49084  87.9036  62.7716 0001961 100.9113 259.2239 13.17647372195931
ONEWEB-0296             
1 49085U 21075L   25247.19188831  .00000157  00000+0  40209-3 0  9990
2 49085  87.8883  47.4869 0001856 111.6514 248.4812 13.12444422197066
ONEWEB-0297             
1 49086U 21075M   25247.14646927  .00000157  00000+0  39987-3 0  9992
2 49086  87.8876  47.5340 0001806  94.2154 265.9181 13.12442657197662
